{
  "type": "FeatureCollection",
  "features": [
    {
      "type": "Feature",
      "properties": {
        "norad_id": 29975,
        "name": "FENGYUN 1C DEB",
        "group": "fengyun-1c-debris",
        "lat": 9.176678395242998,
        "lon": -153.5614979203513,
        "alt_km": 973.0838912897607,
        "timestamp": "2025-12-09T21:34:11.680799+00:00",
        "meta_object_name": "FENGYUN 1C DEB",
        "meta_object_id": "1999-025KZ",
        "meta_epoch": "2025-12-09T02:07:12.607104",
        "meta_mean_motion": 13.98024626,
        "meta_eccentricity": 0.01138059,
        "meta_inclination": 99.3401,
        "meta_ra_of_asc_node": 24.0906,
        "meta_arg_of_pericenter": 23.6867,
        "meta_mean_anomaly": 29.7505,
        "meta_ephemeris_type": 0,
        "meta_classification_type": "U",
        "meta_norad_cat_id": 29975,
        "meta_element_set_no": 999,
        "meta_rev_at_epoch": 96386,
        "meta_bstar": 8.4015265e-05,
        "meta_mean_motion_dot": 8e-07,
        "meta_mean_motion_ddot": 0,
        "tle_line1": "1 29975U 99025KZ  25343.08834036  .00000080  00000+0  84015-4 0  9995",
        "tle_line2": "2 29975  99.3401  24.0906 0113805  23.6867  29.7505 13.98024626963862"
      },
      "geometry": {
        "type": "Point",
        "coordinates": [
          -153.5614979203513,
          9.176678395242998
        ]
      }
    },
    {
      "type": "Feature",
      "properties": {
        "norad_id": 29976,
        "name": "FENGYUN 1C DEB",
        "group": "fengyun-1c-debris",
        "lat": -11.202005197582283,
        "lon": -16.934312997147316,
        "alt_km": 937.9102827943289,
        "timestamp": "2025-12-09T21:34:11.680809+00:00",
        "meta_object_name": "FENGYUN 1C DEB",
        "meta_object_id": "1999-025LA",
        "meta_epoch": "2025-12-09T12:08:37.668192",
        "meta_mean_motion": 13.98104041,
        "meta_eccentricity": 0.02675357,
        "meta_inclination": 98.9177,
        "meta_ra_of_asc_node": 340.9017,
        "meta_arg_of_pericenter": 248.501,
        "meta_mean_anomaly": 281.5389,
        "meta_ephemeris_type": 0,
        "meta_classification_type": "U",
        "meta_norad_cat_id": 29976,
        "meta_element_set_no": 999,
        "meta_rev_at_epoch": 96291,
        "meta_bstar": 0.00037725217,
        "meta_mean_motion_dot": 6.83e-06,
        "meta_mean_motion_ddot": 0,
        "tle_line1": "1 29976U 99025LA  25343.50599153  .00000683  00000+0  37725-3 0  9995",
        "tle_line2": "2 29976  98.9177 340.9017 0267535 248.5010 281.5389 13.98104041962912"
      },
      "geometry": {
        "type": "Point",
        "coordinates": [
          -16.934312997147316,
          -11.202005197582283
        ]
      }
    },
    {
      "type": "Feature",
      "properties": {
        "norad_id": 29977,
        "name": "FENGYUN 1C DEB",
        "group": "fengyun-1c-debris",
        "lat": -24.70986902165081,
        "lon": 22.258034832365073,
        "alt_km": 834.5265636025715,
        "timestamp": "2025-12-09T21:34:11.680819+00:00",
        "meta_object_name": "FENGYUN 1C DEB",
        "meta_object_id": "1999-025LB",
        "meta_epoch": "2025-12-09T13:53:20.404032",
        "meta_mean_motion": 14.05064499,
        "meta_eccentricity": 0.01285154,
        "meta_inclination": 98.3958,
        "meta_ra_of_asc_node": 205.8584,
        "meta_arg_of_pericenter": 265.9632,
        "meta_mean_anomaly": 122.2739,
        "meta_ephemeris_type": 0,
        "meta_classification_type": "U",
        "meta_norad_cat_id": 29977,
        "meta_element_set_no": 999,
        "meta_rev_at_epoch": 96316,
        "meta_bstar": 0.002059016,
        "meta_mean_motion_dot": 3.534e-05,
        "meta_mean_motion_ddot": 0,
        "tle_line1": "1 29977U 99025LB  25343.57870838  .00003534  00000+0  20590-2 0  9994",
        "tle_line2": "2 29977  98.3958 205.8584 0128515 265.9632 122.2739 14.05064499963168"
      },
      "geometry": {
        "type": "Point",
        "coordinates": [
          22.258034832365073,
          -24.70986902165081
        ]
      }
    },
    {
      "type": "Feature",
      "properties": {
        "norad_id": 29978,
        "name": "FENGYUN 1C DEB",
        "group": "fengyun-1c-debris",
        "lat": 22.394188461341187,
        "lon": 30.622113660227907,
        "alt_km": 862.843976476076,
        "timestamp": "2025-12-09T21:34:11.680830+00:00",
        "meta_object_name": "FENGYUN 1C DEB",
        "meta_object_id": "1999-025LC",
        "meta_epoch": "2025-12-09T15:17:51.347904",
        "meta_mean_motion": 13.95906629,
        "meta_eccentricity": 0.00767726,
        "meta_inclination": 99.0618,
        "meta_ra_of_asc_node": 34.1355,
        "meta_arg_of_pericenter": 60.6741,
        "meta_mean_anomaly": 90.0325,
        "meta_ephemeris_type": 0,
        "meta_classification_type": "U",
        "meta_norad_cat_id": 29978,
        "meta_element_set_no": 999,
        "meta_rev_at_epoch": 96273,
        "meta_bstar": 3.0689781e-05,
        "meta_mean_motion_dot": 0,
        "meta_mean_motion_ddot": 0,
        "tle_line1": "1 29978U 99025LC  25343.63739986  .00000000  00000+0  30690-4 0  9999",
        "tle_line2": "2 29978  99.0618  34.1355 0076772  60.6741  90.0325 13.95906629962730"
      },
      "geometry": {
        "type": "Point",
        "coordinates": [
          30.622113660227907,
          22.394188461341187
        ]
      }
    },
    {
      "type": "Feature",
      "properties": {
        "norad_id": 29979,
        "name": "FENGYUN 1C DEB",
        "group": "fengyun-1c-debris",
        "lat": 81.58971676060537,
        "lon": -87.98638242866059,
        "alt_km": 784.2850426387213,
        "timestamp": "2025-12-09T21:34:11.680840+00:00",
        "meta_object_name": "FENGYUN 1C DEB",
        "meta_object_id": "1999-025LD",
        "meta_epoch": "2025-12-09T01:11:22.001280",
        "meta_mean_motion": 14.25950445,
        "meta_eccentricity": 0.01073771,
        "meta_inclination": 98.3706,
        "meta_ra_of_asc_node": 6.4231,
        "meta_arg_of_pericenter": 173.7509,
        "meta_mean_anomaly": 241.4824,
        "meta_ephemeris_type": 0,
        "meta_classification_type": "U",
        "meta_norad_cat_id": 29979,
        "meta_element_set_no": 999,
        "meta_rev_at_epoch": 98021,
        "meta_bstar": 0.00062665926,
        "meta_mean_motion_dot": 1.546e-05,
        "meta_mean_motion_ddot": 0,
        "tle_line1": "1 29979U 99025LD  25343.04956020  .00001546  00000+0  62666-3 0  9998",
        "tle_line2": "2 29979  98.3706   6.4231 0107377 173.7509 241.4824 14.25950445980218"
      },
      "geometry": {
        "type": "Point",
        "coordinates": [
          -87.98638242866059,
          81.58971676060537
        ]
      }
    },
    {
      "type": "Feature",
      "properties": {
        "norad_id": 29980,
        "name": "FENGYUN 1C DEB",
        "group": "fengyun-1c-debris",
        "lat": -40.99867525899596,
        "lon": -34.306048540062456,
        "alt_km": 826.4704336218883,
        "timestamp": "2025-12-09T21:34:11.680851+00:00",
        "meta_object_name": "FENGYUN 1C DEB",
        "meta_object_id": "1999-025LE",
        "meta_epoch": "2025-12-09T10:24:26.571168",
        "meta_mean_motion": 14.06311598,
        "meta_eccentricity": 0.00868057,
        "meta_inclination": 98.5514,
        "meta_ra_of_asc_node": 152.7697,
        "meta_arg_of_pericenter": 257.2764,
        "meta_mean_anomaly": 131.3681,
        "meta_ephemeris_type": 0,
        "meta_classification_type": "U",
        "meta_norad_cat_id": 29980,
        "meta_element_set_no": 999,
        "meta_rev_at_epoch": 96946,
        "meta_bstar": 0.00028544851,
        "meta_mean_motion_dot": 4.45e-06,
        "meta_mean_motion_ddot": 0,
        "tle_line1": "1 29980U 99025LE  25343.43364087  .00000445  00000+0  28545-3 0  9994",
        "tle_line2": "2 29980  98.5514 152.7697 0086805 257.2764 131.3681 14.06311598969464"
      },
      "geometry": {
        "type": "Point",
        "coordinates": [
          -34.306048540062456,
          -40.99867525899596
        ]
      }
    },
    {
      "type": "Feature",
      "properties": {
        "norad_id": 29982,
        "name": "FENGYUN 1C DEB",
        "group": "fengyun-1c-debris",
        "lat": 9.782272646137903,
        "lon": 163.11824713045448,
        "alt_km": 646.7276755704779,
        "timestamp": "2025-12-09T21:34:11.680861+00:00",
        "meta_object_name": "FENGYUN 1C DEB",
        "meta_object_id": "1999-025LG",
        "meta_epoch": "2025-12-09T11:49:06.318336",
        "meta_mean_motion": 14.66839313,
        "meta_eccentricity": 0.01219776,
        "meta_inclination": 99.402,
        "meta_ra_of_asc_node": 164.2899,
        "meta_arg_of_pericenter": 298.2176,
        "meta_mean_anomaly": 86.1345,
        "meta_ephemeris_type": 0,
        "meta_classification_type": "U",
        "meta_norad_cat_id": 29982,
        "meta_element_set_no": 999,
        "meta_rev_at_epoch": 236,
        "meta_bstar": 0.0010058116,
        "meta_mean_motion_dot": 6.211e-05,
        "meta_mean_motion_ddot": 0,
        "tle_line1": "1 29982U 99025LG  25343.49243424  .00006211  00000+0  10058-2 0  9999",
        "tle_line2": "2 29982  99.4020 164.2899 0121977 298.2176  86.1345 14.66839313  2369"
      },
      "geometry": {
        "type": "Point",
        "coordinates": [
          163.11824713045448,
          9.782272646137903
        ]
      }
    }
  ]
}